{
  "type": "FeatureCollection",
  "features": [
    {
      "type": "Feature",
      "properties": {
        "norad_id": 37421,
        "name": "FENGYUN 1C DEB",
        "group": "fengyun-1c-debris",
        "lat": -75.3137754397606,
        "lon": -26.391254484989933,
        "alt_km": 1420.2632661463758,
        "timestamp": "2025-12-07T14:37:05.493702+00:00",
        "meta_object_name": "FENGYUN 1C DEB",
        "meta_object_id": "1999-025EGP",
        "meta_epoch": "2025-12-05T14:39:53.220096",
        "meta_mean_motion": 13.40516964,
        "meta_eccentricity": 0.04089976,
        "meta_inclination": 98.8861,
        "meta_ra_of_asc_node": 295.2012,
        "meta_arg_of_pericenter": 103.3712,
        "meta_mean_anomaly": 261.3346,
        "meta_ephemeris_type": 0,
        "meta_classification_type": "U",
        "meta_norad_cat_id": 37421,
        "meta_element_set_no": 999,
        "meta_rev_at_epoch": 60850,
        "meta_bstar": 0.00084668375,
        "meta_mean_motion_dot": 7.26e-06,
        "meta_mean_motion_ddot": 0,
        "tle_line1": "1 37421U 99025EGP 25339.61103264  .00000726  00000+0  84668-3 0  9996",
        "tle_line2": "2 37421  98.8861 295.2012 0408997 103.3712 261.3346 13.40516964608507"
      },
      "geometry": {
        "type": "Point",
        "coordinates": [
          -26.391254484989933,
          -75.3137754397606
        ]
      }
    },
    {
      "type": "Feature",
      "properties": {
        "norad_id": 37423,
        "name": "FENGYUN 1C DEB",
        "group": "fengyun-1c-debris",
        "lat": 6.471890411207668,
        "lon": -147.00356595188995,
        "alt_km": 834.2639566707621,
        "timestamp": "2025-12-07T14:37:05.493712+00:00",
        "meta_object_name": "FENGYUN 1C DEB",
        "meta_object_id": "1999-025EGR",
        "meta_epoch": "2025-12-02T09:15:11.081088",
        "meta_mean_motion": 14.07508063,
        "meta_eccentricity": 0.00491371,
        "meta_inclination": 98.7874,
        "meta_ra_of_asc_node": 26.9108,
        "meta_arg_of_pericenter": 188.2995,
        "meta_mean_anomaly": 171.7367,
        "meta_ephemeris_type": 0,
        "meta_classification_type": "U",
        "meta_norad_cat_id": 37423,
        "meta_element_set_no": 999,
        "meta_rev_at_epoch": 63464,
        "meta_bstar": 0.00087659335,
        "meta_mean_motion_dot": 1.451e-05,
        "meta_mean_motion_ddot": 0,
        "tle_line1": "1 37423U 99025EGR 25336.38554492  .00001451  00000+0  87659-3 0  9991",
        "tle_line2": "2 37423  98.7874  26.9108 0049137 188.2995 171.7367 14.07508063634645"
      },
      "geometry": {
        "type": "Point",
        "coordinates": [
          -147.00356595188995,
          6.471890411207668
        ]
      }
    },
    {
      "type": "Feature",
      "properties": {
        "norad_id": 37424,
        "name": "FENGYUN 1C DEB",
        "group": "fengyun-1c-debris",
        "lat": -34.43363503509819,
        "lon": -73.90744959455478,
        "alt_km": 818.496735739147,
        "timestamp": "2025-12-07T14:37:05.493723+00:00",
        "meta_object_name": "FENGYUN 1C DEB",
        "meta_object_id": "1999-025EGS",
        "meta_epoch": "2025-11-26T15:03:16.540128",
        "meta_mean_motion": 14.17748147,
        "meta_eccentricity": 0.02143557,
        "meta_inclination": 97.1976,
        "meta_ra_of_asc_node": 102.1461,
        "meta_arg_of_pericenter": 331.0381,
        "meta_mean_anomaly": 27.9039,
        "meta_ephemeris_type": 0,
        "meta_classification_type": "U",
        "meta_norad_cat_id": 37424,
        "meta_element_set_no": 999,
        "meta_rev_at_epoch": 68345,
        "meta_bstar": 0.00085242664,
        "meta_mean_motion_dot": 2.145e-05,
        "meta_mean_motion_ddot": 0,
        "tle_line1": "1 37424U 99025EGS 25330.62727477  .00002145  00000+0  85243-3 0  9996",
        "tle_line2": "2 37424  97.1976 102.1461 0214355 331.0381  27.9039 14.17748147683455"
      },
      "geometry": {
        "type": "Point",
        "coordinates": [
          -73.90744959455478,
          -34.43363503509819
        ]
      }
    },
    {
      "type": "Feature",
      "properties": {
        "norad_id": 37427,
        "name": "FENGYUN 1C DEB",
        "group": "fengyun-1c-debris",
        "lat": -36.849494968836304,
        "lon": -63.591703784441734,
        "alt_km": 594.7178240504672,
        "timestamp": "2025-12-07T14:37:05.493732+00:00",
        "meta_object_name": "FENGYUN 1C DEB",
        "meta_object_id": "1999-025EGV",
        "meta_epoch": "2025-11-25T03:26:10.747680",
        "meta_mean_motion": 14.97768919,
        "meta_eccentricity": 0.01887185,
        "meta_inclination": 98.6232,
        "meta_ra_of_asc_node": 109.1733,
        "meta_arg_of_pericenter": 355.7363,
        "meta_mean_anomaly": 4.2239,
        "meta_ephemeris_type": 0,
        "meta_classification_type": "U",
        "meta_norad_cat_id": 37427,
        "meta_element_set_no": 999,
        "meta_rev_at_epoch": 60059,
        "meta_bstar": 0.00046451943,
        "meta_mean_motion_dot": 7.8e-05,
        "meta_mean_motion_ddot": 0,
        "tle_line1": "1 37427U 99025EGV 25329.14317995  .00007800  00000+0  46452-3 0  9996",
        "tle_line2": "2 37427  98.6232 109.1733 0188718 355.7363   4.2239 14.97768919600595"
      },
      "geometry": {
        "type": "Point",
        "coordinates": [
          -63.591703784441734,
          -36.849494968836304
        ]
      }
    },
    {
      "type": "Feature",
      "properties": {
        "norad_id": 37430,
        "name": "FENGYUN 1C DEB",
        "group": "fengyun-1c-debris",
        "lat": -36.751950831335726,
        "lon": 62.306317118689414,
        "alt_km": 809.187732653374,
        "timestamp": "2025-12-07T14:37:05.493743+00:00",
        "meta_object_name": "FENGYUN 1C DEB",
        "meta_object_id": "1999-025EGY",
        "meta_epoch": "2025-12-05T03:58:16.719456",
        "meta_mean_motion": 14.28846273,
        "meta_eccentricity": 0.001883,
        "meta_inclination": 98.7668,
        "meta_ra_of_asc_node": 53.2332,
        "meta_arg_of_pericenter": 93.5332,
        "meta_mean_anomaly": 266.8003,
        "meta_ephemeris_type": 0,
        "meta_classification_type": "U",
        "meta_norad_cat_id": 37430,
        "meta_element_set_no": 999,
        "meta_rev_at_epoch": 61593,
        "meta_bstar": 0.0038447795,
        "meta_mean_motion_dot": 9.683e-05,
        "meta_mean_motion_ddot": 0,
        "tle_line1": "1 37430U 99025EGY 25339.16547129  .00009683  00000+0  38448-2 0  9993",
        "tle_line2": "2 37430  98.7668  53.2332 0018830  93.5332 266.8003 14.28846273615930"
      },
      "geometry": {
        "type": "Point",
        "coordinates": [
          62.306317118689414,
          -36.751950831335726
        ]
      }
    },
    {
      "type": "Feature",
      "properties": {
        "norad_id": 37432,
        "name": "FENGYUN 1C DEB",
        "group": "fengyun-1c-debris",
        "lat": -52.82492494028625,
        "lon": 5.935725790163437,
        "alt_km": 592.3344317254014,
        "timestamp": "2025-12-07T14:37:05.493753+00:00",
        "meta_object_name": "FENGYUN 1C DEB",
        "meta_object_id": "1999-025EHA",
        "meta_epoch": "2025-12-05T18:14:41.033760",
        "meta_mean_motion": 14.53339368,
        "meta_eccentricity": 0.01824817,
        "meta_inclination": 98.1839,
        "meta_ra_of_asc_node": 353.19,
        "meta_arg_of_pericenter": 309.6452,
        "meta_mean_anomaly": 48.8764,
        "meta_ephemeris_type": 0,
        "meta_classification_type": "U",
        "meta_norad_cat_id": 37432,
        "meta_element_set_no": 999,
        "meta_rev_at_epoch": 8275,
        "meta_bstar": 0.0017271417,
        "meta_mean_motion_dot": 8.904e-05,
        "meta_mean_motion_ddot": 0,
        "tle_line1": "1 37432U 99025EHA 25339.76019715  .00008904  00000+0  17271-2 0  9992",
        "tle_line2": "2 37432  98.1839 353.1900 0182481 309.6452  48.8764 14.53339368 82757"
      },
      "geometry": {
        "type": "Point",
        "coordinates": [
          5.935725790163437,
          -52.82492494028625
        ]
      }
    },
    {
      "type": "Feature",
      "properties": {
        "norad_id": 37435,
        "name": "FENGYUN 1C DEB",
        "group": "fengyun-1c-debris",
        "lat": 71.42957113406871,
        "lon": -8.92559586957225,
        "alt_km": 789.3749679203402,
        "timestamp": "2025-12-07T14:37:05.493763+00:00",
        "meta_object_name": "FENGYUN 1C DEB",
        "meta_object_id": "1999-025EHD",
        "meta_epoch": "2025-11-29T08:44:14.359776",
        "meta_mean_motion": 14.22271668,
        "meta_eccentricity": 0.00410088,
        "meta_inclination": 98.6499,
        "meta_ra_of_asc_node": 9.9283,
        "meta_arg_of_pericenter": 53.3524,
        "meta_mean_anomaly": 307.1414,
        "meta_ephemeris_type": 0,
        "meta_classification_type": "U",
        "meta_norad_cat_id": 37435,
        "meta_element_set_no": 999,
        "meta_rev_at_epoch": 88749,
        "meta_bstar": 0.00099361212,
        "meta_mean_motion_dot": 2.183e-05,
        "meta_mean_motion_ddot": 0,
        "tle_line1": "1 37435U 99025EHD 25333.36405509  .00002183  00000+0  99361-3 0  9999",
        "tle_line2": "2 37435  98.6499   9.9283 0041008  53.3524 307.1414 14.22271668887490"
      },
      "geometry": {
        "type": "Point",
        "coordinates": [
          -8.92559586957225,
          71.42957113406871
        ]
      }
    }
  ]
}